[{"OBJECT_NAME":"STARLINK-31106","OBJECT_ID":"2023-211Y","EPOCH":"2026-03-09T02:16:57.114336","MEAN_MOTION":15.27576272,"ECCENTRICITY":6.219e-5,"INCLINATION":43.0024,"RA_OF_ASC_NODE":88.6354,"ARG_OF_PERICENTER":276.696,"MEAN_ANOMALY":83.382,"EPHEMERIS_TYPE":0,"CLASSIFICATION_TYPE":"U","NORAD_CAT_ID":58689,"ELEMENT_SET_NO":999,"REV_AT_EPOCH":12237,"BSTAR":4.3779382e-5,"MEAN_MOTION_DOT":9.43e-6,"MEAN_MOTION_DDOT":0},{"OBJECT_NAME":"QAEM 100 R\/B","OBJECT_ID":"2024-165A","EPOCH":"2026-03-09T23:28:11.930304","MEAN_MOTION":15.14187295,"ECCENTRICITY":0.0059581,"INCLINATION":64.0756,"RA_OF_ASC_NODE":359.5576,"ARG_OF_PERICENTER":312.0209,"MEAN_ANOMALY":47.5844,"EPHEMERIS_TYPE":0,"CLASSIFICATION_TYPE":"U","NORAD_CAT_ID":61071,"ELEMENT_SET_NO":999,"REV_AT_EPOCH":8183,"BSTAR":0.0003372463,"MEAN_MOTION_DOT":6.252e-5,"MEAN_MOTION_DDOT":0}]
